OBJECT_NAME,OBJECT_ID,EPOCH,MEAN_MOTION,ECCENTRICITY,INCLINATION,RA_OF_ASC_NODE,ARG_OF_PERICENTER,MEAN_ANOMALY,EPHEMERIS_TYPE,CLASSIFICATION_TYPE,NORAD_CAT_ID,ELEMENT_SET_NO,REV_AT_EPOCH,BSTAR,MEAN_MOTION_DOT,MEAN_MOTION_DDOT
ORBCOMM FM31 [-],1999-065B,2024-01-20T06:29:51.281952,14.34799720,.0004839,45.0245,351.0265,326.9998,33.0547,0,U,25981,999,26013,.70126E-3,.1866E-4,0
ORBCOMM FM32 [+],1999-065C,2024-01-20T07:28:51.008736,14.33775583,.0007077,45.0176,3.8292,330.9514,29.0939,0,U,25982,999,26078,.71907E-3,.1877E-4,0
ORBCOMM FM33 [-],1999-065D,2024-01-20T03:40:55.474176,14.37209910,.0009508,45.0289,277.1970,357.1149,158.7314,0,U,25983,999,26204,.58794E-3,.1625E-4,0
ORBCOMM FM36 [-],1999-065E,2024-01-20T01:36:57.834720,14.35081543,.0004725,45.0414,1.1847,259.2572,100.7744,0,U,25984,999,26049,.74442E-3,.2002E-4,0
ORBCOMM FM35 [+],1999-065F,2024-01-20T06:56:01.291776,14.34734665,.0004544,45.0411,2.4672,327.6176,32.4392,0,U,25985,999,26092,.74836E-3,.1998E-4,0
ORBCOMM FM34 [-],1999-065G,2024-01-20T07:49:13.824480,14.34690859,.0005522,45.0406,2.7983,290.3881,69.6373,0,U,25986,999,26104,.71257E-3,.1895E-4,0
ORBCOMM FM38 [-],2008-031A,2024-01-20T13:28:54.346368,14.76781581,.0005197,48.4401,234.0167,355.4361,4.6505,0,U,33060,999,83872,.42566E-3,.2811E-4,0
ORBCOMM FM41 [-],2008-031B,2024-01-20T00:07:26.790816,14.76522167,.0004269,48.4434,243.0137,337.2276,165.1247,0,U,33061,999,83814,.40093E-3,.2618E-4,0
ORBCOMM FM39 [-],2008-031D,2024-01-20T01:23:03.162336,14.75525488,.0007405,48.4407,270.5019,314.6764,45.3545,0,U,33063,999,83777,.40677E-3,.2595E-4,0
ORBCOMM FM40 [-],2008-031F,2024-01-19T20:58:52.247712,14.76929124,.0006855,48.4417,251.1597,340.5188,112.8009,0,U,33065,999,83845,.45313E-3,.3017E-4,0
VESSELSAT 1 [-],2011-058C,2024-01-20T04:48:05.095872,14.11104977,.001361,19.9636,323.4000,293.8367,66.0611,0,U,37840,999,63361,.11017E-3,.466E-5,0
ORBCOMM FM109 [+],2014-040A,2024-01-20T03:57:10.937088,14.56237439,.0001539,47.0037,280.2624,116.5236,243.5807,0,U,40086,999,50609,.37583E-3,.1511E-4,0
ORBCOMM FM107 [+],2014-040B,2024-01-20T03:07:35.094720,14.56234902,.0000956,47.0061,281.3717,58.5059,301.5919,0,U,40087,999,50616,.3394E-3,.1348E-4,0
ORBCOMM FM106 [-],2014-040C,2024-01-20T10:20:51.938880,14.66488139,.0018801,47.0592,141.2346,206.2055,153.7885,0,U,40088,999,50799,.48115E-3,.2515E-4,0
ORBCOMM FM111 [-],2014-040D,2024-01-20T01:40:55.368192,14.80845728,.0034573,47.0057,56.9757,261.8215,97.8758,0,U,40089,999,51389,.52597E-3,.3938E-4,0
ORBCOMM FM103 [+],2014-040F,2024-01-20T02:02:13.445376,14.56227147,.00015,47.0061,281.9214,72.1424,287.9624,0,U,40091,999,48912,.3094E-3,.1214E-4,0
ORBCOMM FM114 [+],2015-081A,2024-01-19T20:16:35.045184,14.56224588,.0001757,47.0010,192.3694,167.3482,192.7447,0,U,41179,999,42950,.43992E-3,.1797E-4,0
ORBCOMM FM119 [-],2015-081B,2024-01-20T13:38:06.119232,14.56220135,.0002191,47.0013,98.1550,237.6685,122.3988,0,U,41180,999,43081,.3745E-3,.1504E-4,0
ORBCOMM FM105 [-],2015-081C,2024-01-20T12:17:53.011104,14.44192641,.0002044,47.0023,55.2537,207.6480,152.4292,0,U,41181,999,42658,.24071E-3,.676E-5,0
ORBCOMM FM110 [+],2015-081D,2024-01-20T13:50:12.242112,14.56220989,.0001808,47.0001,188.3405,308.3219,51.7503,0,U,41182,999,42961,.44451E-3,.1817E-4,0
ORBCOMM FM112 [+],2015-081F,2024-01-20T08:10:10.690464,14.56213359,.0001957,46.9985,98.4694,226.6811,133.3911,0,U,41184,999,43072,.48246E-3,.1986E-4,0
ORBCOMM FM113 [+],2015-081G,2024-01-20T07:36:41.590656,14.56208625,.0001835,47.0004,98.8229,244.0247,116.0448,0,U,41185,999,43070,.46263E-3,.1898E-4,0
ORBCOMM FM115 [+],2015-081H,2024-01-19T05:39:39.559392,14.60283623,.0001085,46.9995,324.2967,259.6227,100.4537,0,U,41186,999,43245,.40645E-3,.181E-4,0
ORBCOMM FM108 [+],2015-081J,2024-01-19T23:54:28.128096,14.56196714,.0001417,47.0057,11.4908,108.9781,251.1257,0,U,41187,999,43180,.45122E-3,.1846E-4,0
ORBCOMM FM117 [+],2015-081K,2024-01-19T23:05:28.616928,14.56200872,.0001971,47.0016,10.5838,131.8777,228.2276,0,U,41188,999,43184,.45575E-3,.1866E-4,0
ORBCOMM FM116 [+],2015-081L,2024-01-20T13:39:32.331744,14.56203861,.0003098,47.0011,97.5392,233.7157,126.3442,0,U,41189,999,43074,.51337E-3,.2124E-4,0
